ONEWEB-0027             
1 45432U 20020J   23328.69605898  .00000044  00000+0  79775-4 0  9997
2 45432  87.9222 191.8226 0001750  91.9459 268.1873 13.17650522183165
ONEWEB-0064             
1 45433U 20020K   23328.71055231 -.00000274  00000+0 -80783-3 0  9998
2 45433  87.8992 206.9481 0001568  88.4046 271.7261 13.11418165180077
ONEWEB-0018             
1 45434U 20020L   23329.12452265  .00000553  00000+0  15244-2 0  9990
2 45434  87.8995 206.8595 0001436  76.4727 283.6561 13.11415659180084
ONEWEB-0083             
1 45435U 20020M   23328.73167584  .00000646  00000+0  17875-2 0  9999
2 45435  87.8988 206.9187 0001618  80.5620 279.5690 13.11417019180062
ONEWEB-0095             
1 45436U 20020N   23329.10516614  .00000333  00000+0  90250-3 0  9996
2 45436  87.8997 206.8822 0001953  76.6972 283.4373 13.11420036180128
ONEWEB-0092             
1 45437U 20020P   23329.14885570 -.00000429  00000+0 -12461-2 0  9996
2 45437  87.8996 206.8525 0001952  74.6551 285.4792 13.11413619180236
ONEWEB-0085             
1 45438U 20020Q   23328.72517176  .00000454  00000+0  12439-2 0  9995
2 45438  87.8993 206.9423 0001381  83.5428 276.5857 13.11418556180069
ONEWEB-0096             
1 45439U 20020R   23328.73331055  .00000639  00000+0  17672-2 0  9996
2 45439  87.8986 206.9144 0001358  70.1765 289.9509 13.11416287180052
